{
  "type": "FeatureCollection",
  "features": [
    {
      "type": "Feature",
      "properties": {
        "norad_id": 33748,
        "name": "FENGYUN 1C DEB",
        "group": "fengyun-1c-debris",
        "lat": 17.77950641312207,
        "lon": 35.16569395094684,
        "alt_km": 802.5650738758877,
        "timestamp": "2025-12-12T18:57:44.416791+00:00",
        "meta_object_name": "FENGYUN 1C DEB",
        "meta_object_id": "1999-025DJM",
        "meta_epoch": "2025-12-11T14:22:32.829312",
        "meta_mean_motion": 14.32270627,
        "meta_eccentricity": 0.00345122,
        "meta_inclination": 98.5864,
        "meta_ra_of_asc_node": 36.7637,
        "meta_arg_of_pericenter": 244.4311,
        "meta_mean_anomaly": 115.3303,
        "meta_ephemeris_type": 0,
        "meta_classification_type": "U",
        "meta_norad_cat_id": 33748,
        "meta_element_set_no": 999,
        "meta_rev_at_epoch": 91377,
        "meta_bstar": 0.0019946465,
        "meta_mean_motion_dot": 5.376e-05,
        "meta_mean_motion_ddot": 0,
        "tle_line1": "1 33748U 99025DJM 25345.59899108  .00005376  00000+0  19946-2 0  9999",
        "tle_line2": "2 33748  98.5864  36.7637 0034512 244.4311 115.3303 14.32270627913770"
      },
      "geometry": {
        "type": "Point",
        "coordinates": [
          35.16569395094684,
          17.77950641312207
        ]
      }
    },
    {
      "type": "Feature",
      "properties": {
        "norad_id": 35088,
        "name": "FENGYUN 1C DEB",
        "group": "fengyun-1c-debris",
        "lat": 85.13410640248446,
        "lon": 90.50973291959912,
        "alt_km": 921.450958362343,
        "timestamp": "2025-12-12T18:57:44.416801+00:00",
        "meta_object_name": "FENGYUN 1C DEB",
        "meta_object_id": "1999-025DJQ",
        "meta_epoch": "2025-12-05T18:07:13.251936",
        "meta_mean_motion": 14.11541767,
        "meta_eccentricity": 0.0269112,
        "meta_inclination": 94.6213,
        "meta_ra_of_asc_node": 158.6962,
        "meta_arg_of_pericenter": 224.9702,
        "meta_mean_anomaly": 132.9405,
        "meta_ephemeris_type": 0,
        "meta_classification_type": "U",
        "meta_norad_cat_id": 35088,
        "meta_element_set_no": 999,
        "meta_rev_at_epoch": 58701,
        "meta_bstar": 0.013442762,
        "meta_mean_motion_dot": 0.00034432,
        "meta_mean_motion_ddot": 0,
        "tle_line1": "1 35088U 99025DJQ 25339.75501449  .00034432  00000+0  13443-1 0  9997",
        "tle_line2": "2 35088  94.6213 158.6962 0269112 224.9702 132.9405 14.11541767587017"
      },
      "geometry": {
        "type": "Point",
        "coordinates": [
          90.50973291959912,
          85.13410640248446
        ]
      }
    },
    {
      "type": "Feature",
      "properties": {
        "norad_id": 35089,
        "name": "FENGYUN 1C DEB",
        "group": "fengyun-1c-debris",
        "lat": -1.528956513286374,
        "lon": -3.1427499214751875,
        "alt_km": 821.8315344896228,
        "timestamp": "2025-12-12T18:57:44.416811+00:00",
        "meta_object_name": "FENGYUN 1C DEB",
        "meta_object_id": "1999-025DJR",
        "meta_epoch": "2025-12-09T11:27:18.732960",
        "meta_mean_motion": 14.19406772,
        "meta_eccentricity": 0.00291418,
        "meta_inclination": 98.5584,
        "meta_ra_of_asc_node": 353.4263,
        "meta_arg_of_pericenter": 74.1039,
        "meta_mean_anomaly": 286.3346,
        "meta_ephemeris_type": 0,
        "meta_classification_type": "U",
        "meta_norad_cat_id": 35089,
        "meta_element_set_no": 999,
        "meta_rev_at_epoch": 60829,
        "meta_bstar": 0.00082160985,
        "meta_mean_motion_dot": 1.693e-05,
        "meta_mean_motion_ddot": 0,
        "tle_line1": "1 35089U 99025DJR 25343.47730015  .00001693  00000+0  82161-3 0  9993",
        "tle_line2": "2 35089  98.5584 353.4263 0029141  74.1039 286.3346 14.19406772608291"
      },
      "geometry": {
        "type": "Point",
        "coordinates": [
          -3.1427499214751875,
          -1.528956513286374
        ]
      }
    },
    {
      "type": "Feature",
      "properties": {
        "norad_id": 35090,
        "name": "FENGYUN 1C DEB",
        "group": "fengyun-1c-debris",
        "lat": -41.090581399736564,
        "lon": 7.6103138413906635,
        "alt_km": 817.784216216397,
        "timestamp": "2025-12-12T18:57:44.416822+00:00",
        "meta_object_name": "FENGYUN 1C DEB",
        "meta_object_id": "1999-025DJS",
        "meta_epoch": "2025-11-28T11:16:09.482016",
        "meta_mean_motion": 14.17474979,
        "meta_eccentricity": 0.00568935,
        "meta_inclination": 99.1993,
        "meta_ra_of_asc_node": 344.6679,
        "meta_arg_of_pericenter": 56.1043,
        "meta_mean_anomaly": 304.5524,
        "meta_ephemeris_type": 0,
        "meta_classification_type": "U",
        "meta_norad_cat_id": 35090,
        "meta_element_set_no": 999,
        "meta_rev_at_epoch": 66048,
        "meta_bstar": 0.0014922384,
        "meta_mean_motion_dot": 3.028e-05,
        "meta_mean_motion_ddot": 0,
        "tle_line1": "1 35090U 99025DJS 25332.46955419  .00003028  00000+0  14922-2 0  9992",
        "tle_line2": "2 35090  99.1993 344.6679 0056893  56.1043 304.5524 14.17474979660488"
      },
      "geometry": {
        "type": "Point",
        "coordinates": [
          7.6103138413906635,
          -41.090581399736564
        ]
      }
    },
    {
      "type": "Feature",
      "properties": {
        "norad_id": 35091,
        "name": "FENGYUN 1C DEB",
        "group": "fengyun-1c-debris",
        "lat": -57.930876867501645,
        "lon": 105.05519443643554,
        "alt_km": 661.4334901230313,
        "timestamp": "2025-12-12T18:57:44.416832+00:00",
        "meta_object_name": "FENGYUN 1C DEB",
        "meta_object_id": "1999-025DJT",
        "meta_epoch": "2025-12-12T06:05:07.639296",
        "meta_mean_motion": 14.6154272,
        "meta_eccentricity": 0.00484398,
        "meta_inclination": 98.5951,
        "meta_ra_of_asc_node": 90.5287,
        "meta_arg_of_pericenter": 293.3401,
        "meta_mean_anomaly": 66.2706,
        "meta_ephemeris_type": 0,
        "meta_classification_type": "U",
        "meta_norad_cat_id": 35091,
        "meta_element_set_no": 999,
        "meta_rev_at_epoch": 89920,
        "meta_bstar": 0.0041103072,
        "meta_mean_motion_dot": 0.0002075,
        "meta_mean_motion_ddot": 0,
        "tle_line1": "1 35091U 99025DJT 25346.25356064  .00020750  00000+0  41103-2 0  9998",
        "tle_line2": "2 35091  98.5951  90.5287 0048439 293.3401  66.2706 14.61542720899205"
      },
      "geometry": {
        "type": "Point",
        "coordinates": [
          105.05519443643554,
          -57.930876867501645
        ]
      }
    },
    {
      "type": "Feature",
      "properties": {
        "norad_id": 35102,
        "name": "FENGYUN 1C DEB",
        "group": "fengyun-1c-debris",
        "lat": 81.37405648745465,
        "lon": -82.50982967620338,
        "alt_km": 744.4209672261431,
        "timestamp": "2025-12-12T18:57:44.416842+00:00",
        "meta_object_name": "FENGYUN 1C DEB",
        "meta_object_id": "1999-025DKE",
        "meta_epoch": "2025-12-08T18:45:28.418688",
        "meta_mean_motion": 14.288571,
        "meta_eccentricity": 0.00608821,
        "meta_inclination": 98.4802,
        "meta_ra_of_asc_node": 353.1647,
        "meta_arg_of_pericenter": 103.2317,
        "meta_mean_anomaly": 257.5666,
        "meta_ephemeris_type": 0,
        "meta_classification_type": "U",
        "meta_norad_cat_id": 35102,
        "meta_element_set_no": 999,
        "meta_rev_at_epoch": 64856,
        "meta_bstar": 0.00079932448,
        "meta_mean_motion_dot": 2.015e-05,
        "meta_mean_motion_ddot": 0,
        "tle_line1": "1 35102U 99025DKE 25342.78157892  .00002015  00000+0  79932-3 0  9999",
        "tle_line2": "2 35102  98.4802 353.1647 0060882 103.2317 257.5666 14.28857100648566"
      },
      "geometry": {
        "type": "Point",
        "coordinates": [
          -82.50982967620338,
          81.37405648745465
        ]
      }
    },
    {
      "type": "Feature",
      "properties": {
        "norad_id": 35104,
        "name": "FENGYUN 1C DEB",
        "group": "fengyun-1c-debris",
        "lat": -69.3634303972963,
        "lon": 149.81008634362703,
        "alt_km": 839.2997993940962,
        "timestamp": "2025-12-12T18:57:44.416852+00:00",
        "meta_object_name": "FENGYUN 1C DEB",
        "meta_object_id": "1999-025DKG",
        "meta_epoch": "2025-12-06T18:54:45.260640",
        "meta_mean_motion": 14.20313369,
        "meta_eccentricity": 0.00310538,
        "meta_inclination": 98.5964,
        "meta_ra_of_asc_node": 347.6591,
        "meta_arg_of_pericenter": 157.8508,
        "meta_mean_anomaly": 20.7382,
        "meta_ephemeris_type": 0,
        "meta_classification_type": "U",
        "meta_norad_cat_id": 35104,
        "meta_element_set_no": 999,
        "meta_rev_at_epoch": 89682,
        "meta_bstar": 0.00068235303,
        "meta_mean_motion_dot": 1.425e-05,
        "meta_mean_motion_ddot": 0,
        "tle_line1": "1 35104U 99025DKG 25340.78802385  .00001425  00000+0  68235-3 0  9991",
        "tle_line2": "2 35104  98.5964 347.6591 0031053 157.8508  20.7382 14.20313369896824"
      },
      "geometry": {
        "type": "Point",
        "coordinates": [
          149.81008634362703,
          -69.3634303972963
        ]
      }
    }
  ]
}